NORAD_CAT_ID,OBJECT_NAME,OBJECT_TYPE,EPOCH,MEAN_MOTION,ECCENTRICITY,INCLINATION,RA_OF_ASC_NODE,ARG_OF_PERICENTER,MEAN_ANOMALY,BSTAR,MEAN_MOTION_DOT,MEAN_MOTION_DDOT,TLE_LINE0,TLE_LINE1,TLE_LINE2,SEMIMAJOR_AXIS,PERIOD,APOGEE,PERIGEE,DECAYED
51874.0,STARLINK-3574,PAYLOAD,2022-06-19 20:00:01,15.08845394,0.0001919,53.2177,349.2507,44.322,344.1747,-0.00086874,-0.0001409,0.0,0 STARLINK-3574,1 51874U 22022Y   22170.83334491 -.00014090  00000-0 -86874-3 0  9992,2 51874  53.2177 349.2507 0001919  44.3220 344.1747 15.08845394 17967,6917.864000000001,95.437,541.056,538.401,0.0
51874.0,STARLINK-3574,PAYLOAD,2022-06-19 22:00:00,15.08833029,0.0001902,53.2178,348.8768,42.3603,79.04,0.00045389,6.942e-05,0.0,0 STARLINK-3574,1 51874U 22022Y   22170.91667824  .00006942  00000-0  45389-3 0  9991,2 51874  53.2178 348.8768 0001902  42.3603  79.0400 15.08833029  1300,6917.901999999999,95.438,541.082,538.451,0.0
51874.0,STARLINK-3574,PAYLOAD,2022-06-20 14:00:01,15.08847241,0.0001757,53.2182,345.8826,46.3804,98.1884,-0.00064627,-0.00010561,0.0,0 STARLINK-3574,1 51874U 22022Y   22171.58334491 -.00010561  00000-0 -64627-3 0  9996,2 51874  53.2182 345.8826 0001757  46.3804  98.1884 15.08847241  1301,6917.858,95.437,540.939,538.508,0.0
51874.0,STARLINK-3574,PAYLOAD,2022-06-20 22:00:00,15.08831132,0.0001892,53.2181,344.3878,39.4794,116.6953,0.00092508,0.00014462,0.0,0 STARLINK-3574,1 51874U 22022Y   22171.91667824  .00014462  00000-0  92508-3 0  9993,2 51874  53.2181 344.3878 0001892  39.4794 116.6953 15.08831132 18125,6917.906999999997,95.438,541.081,538.464,0.0
51874.0,STARLINK-3574,PAYLOAD,2022-06-21 14:00:01,15.08853978,0.0001745,53.2185,341.3938,44.1297,135.2197,-0.00093825,-0.00015195,0.0,0 STARLINK-3574,1 51874U 22022Y   22172.58334491 -.00015195  00000-0 -93825-3 0  9997,2 51874  53.2185 341.3938 0001745  44.1297 135.2197 15.08853978  1302,6917.8380000000025,95.437,540.91,538.496,0.0
51874.0,STARLINK-3574,PAYLOAD,2022-06-21 22:00:00,15.0882359,0.000194,53.2182,339.8988,39.8574,151.101,0.0010274,0.00016094,0.0,0 STARLINK-3574,1 51874U 22022Y   22172.91667824  .00016094  00000-0  10274-2 0  9996,2 51874  53.2182 339.8988 0001940  39.8574 151.1010 15.08823590 18274,6917.931,95.439,541.138,538.453,0.0
51874.0,STARLINK-3574,PAYLOAD,2022-06-22 14:00:01,15.0884986,0.0001817,53.2185,336.905,46.6898,167.43,-0.001011,-0.00016347,0.0,0 STARLINK-3574,1 51874U 22022Y   22173.58334491 -.00016347  00000-0 -10110-2 0  9993,2 51874  53.2185 336.9050 0001817  46.6898 167.4300 15.08849860  1309,6917.85,95.437,540.972,538.4580000000002,0.0
51874.0,STARLINK-3574,PAYLOAD,2022-06-22 22:00:00,15.08820187,0.0001907,53.218,335.4098,39.2894,186.4427,0.0012138,0.00019072,0.0,0 STARLINK-3574,1 51874U 22022Y   22173.91667824  .00019072  00000-0  12138-2 0  9997,2 51874  53.2180 335.4098 0001907  39.2894 186.4427 15.08820187 18427,6917.941,95.439,541.125,538.487,0.0
51874.0,STARLINK-3574,PAYLOAD,2022-06-23 14:00:01,15.08848685,0.0001720999999999,53.2181,332.4161,44.3358,204.5493,-0.0010683,-0.00017254,0.0,0 STARLINK-3574,1 51874U 22022Y   22174.58334491 -.00017254  00000-0 -10683-2 0  9997,2 51874  53.2181 332.4161 0001721  44.3358 204.5493 15.08848685  1309,6917.854,95.437,540.909,538.528,0.0
51874.0,STARLINK-3574,PAYLOAD,2022-06-23 22:00:00,15.08834432,0.0001877,53.2175,330.9208,40.2595,220.2232,0.00079528,0.0001239,0.0,0 STARLINK-3574,1 51874U 22022Y   22174.91667824  .00012390  00000-0  79528-3 0  9991,2 51874  53.2175 330.9208 0001877  40.2595 220.2232 15.08834432 18575,6917.897,95.438,541.061,538.464,0.0
51874.0,STARLINK-3574,PAYLOAD,2022-06-24 14:00:01,15.08838334,0.0001817,53.2175,327.9272,48.1326,235.5133,-0.0013938,-0.00022401,0.0,0 STARLINK-3574,1 51874U 22022Y   22175.58334491 -.00022401  00000-0 -13938-2 0  9994,2 51874  53.2175 327.9272 0001817  48.1326 235.5133 15.08838334 18670,6917.885,95.438,541.007,538.494,0.0
51874.0,STARLINK-3574,PAYLOAD,2022-06-24 22:00:01,15.08817882,0.0001922,53.217,326.4316,43.3727,251.9213,0.0019706,0.00031195,0.0,0 STARLINK-3574,1 51874U 22022Y   22175.91668981  .00031195  00000-0  19706-2 0  9992,2 51874  53.2170 326.4316 0001922  43.3727 251.9213 15.08817882  1305,6917.948,95.439,541.143,538.4830000000002,0.0
51874.0,STARLINK-3574,PAYLOAD,2022-06-25 06:00:00,15.0880163,0.0001781,53.2173,324.9362,50.1679,256.6534,0.0050043,0.00080178,0.0,0 STARLINK-3574,1 51874U 22022Y   22176.25001157  .00080178  00000-0  50043-2 0  9990,2 51874  53.2173 324.9362 0001781  50.1679 256.6534 15.08801630 18778,6917.998000000001,95.44,541.095,538.631,0.0
51874.0,STARLINK-3574,PAYLOAD,2022-06-25 14:00:01,15.08856093,0.0001854,53.2171,323.4381,48.5992,269.8011,-0.0013345,-0.00021474,0.0,0 STARLINK-3574,1 51874U 22022Y   22176.58334491 -.00021474  00000-0 -13345-2 0  9996,2 51874  53.2171 323.4381 0001854  48.5992 269.8011 15.08856093 18826,6917.831,95.437,540.979,538.414,0.0
51874.0,STARLINK-3574,PAYLOAD,2022-06-25 22:00:00,15.0884423,0.000195,53.2167,321.9423,43.6497,286.3588,0.0016614999999999,0.00026257,0.0,0 STARLINK-3574,1 51874U 22022Y   22176.91667824  .00026257  00000-0  16615-2 0  9997,2 51874  53.2167 321.9423 0001950  43.6497 286.3588 15.08844230  1302,6917.8669999999975,95.437,541.081,538.383,0.0
51874.0,STARLINK-3574,PAYLOAD,2022-06-26 06:00:00,15.088482199999998,0.0001816,53.2169,320.4441,50.0493,291.5794,0.0011902999999999,0.00018711,0.0,0 STARLINK-3574,1 51874U 22022Y   22177.25001157  .00018711  00000-0  11903-2 0  9997,2 51874  53.2169 320.4441 0001816  50.0493 291.5794 15.08848220 18923,6917.855,95.437,540.977,538.464,0.0
51874.0,STARLINK-3574,PAYLOAD,2022-06-26 14:00:01,15.08862751,0.0001981,53.2171,318.9487,49.6345,303.6735,-0.0017640999999999,-0.00028272,0.0,0 STARLINK-3574,1 51874U 22022Y   22177.58335648 -.00028272  00000-0 -17641-2 0  9998,2 51874  53.2171 318.9487 0001981  49.6345 303.6735 15.08862751  1300,6917.811,95.436,541.0459999999998,538.305,0.0
51874.0,STARLINK-3574,PAYLOAD,2022-06-26 22:00:00,15.08839925,0.0002019,53.2169,317.4528,44.3901,320.4655,-0.0003069,-5.169e-05,0.0,0 STARLINK-3574,1 51874U 22022Y   22177.91667824 -.00005169  00000-0 -30690-3 0  9999,2 51874  53.2169 317.4528 0002019  44.3901 320.4655 15.08839925 19034,6917.880999999999,95.438,541.1419999999998,538.349,0.0
51874.0,STARLINK-3574,PAYLOAD,2022-06-27 14:00:01,15.088870300000002,0.0002004,53.2174,314.4621,47.9983,340.0156,-0.0083079,-0.00130298,0.0,0 STARLINK-3574,1 51874U 22022Y   22178.58334491 -.00130298  00000-0 -83079-2 0  9994,2 51874  53.2174 314.4621 0002004  47.9983 340.0156 15.08887030  1309,6917.736999999999,95.435,540.988,538.215,0.0
51874.0,STARLINK-3574,PAYLOAD,2022-06-27 22:00:00,15.08858525,0.0002021,53.2173,312.9636,42.6461,356.9806,-0.0022195,-0.00035457,0.0,0 STARLINK-3574,1 51874U 22022Y   22178.91667824 -.00035457  00000-0 -22195-2 0  9993,2 51874  53.2173 312.9636 0002021  42.6461 356.9806 15.08858525  1304,6917.824000000001,95.436,541.087,538.2909999999998,0.0
51874.0,STARLINK-3574,PAYLOAD,2022-06-28 06:00:00,15.0880027,0.0001805,53.2178,311.4655,47.6812,3.5496,0.003263,0.00051969,0.0,0 STARLINK-3574,1 51874U 22022Y   22179.25001157  .00051969  00000-0  32630-2 0  9991,2 51874  53.2178 311.4655 0001805  47.6812   3.5496 15.08800270 19233,6918.002,95.44,541.116,538.618,0.0
51874.0,STARLINK-3574,PAYLOAD,2022-06-28 14:00:01,15.08844363,0.0001958,53.218,309.9707,45.2078,17.5851,-0.0023832,-0.00038022,0.0,0 STARLINK-3574,1 51874U 22022Y   22179.58334491 -.00038022  00000-0 -23832-2 0  9998,2 51874  53.2180 309.9707 0001958  45.2078  17.5851 15.08844363  1303,6917.8669999999975,95.437,541.087,538.378,0.0
51874.0,STARLINK-3574,PAYLOAD,2022-06-28 22:00:00,15.08826424,0.0001961,53.2179,308.4746,40.7359,33.6449,-0.0013307,-0.00021396,0.0,0 STARLINK-3574,1 51874U 22022Y   22179.91667824 -.00021396  00000-0 -13307-2 0  9996,2 51874  53.2179 308.4746 0001961  40.7359  33.6449 15.08826424  1304,6917.922,95.438,541.143,538.43,0.0
51874.0,STARLINK-3574,PAYLOAD,2022-06-29 14:00:01,15.08826249,0.0001922,53.2184,305.4821,43.8354,53.6729,-0.0013803,-0.00022181,0.0,0 STARLINK-3574,1 51874U 22022Y   22180.58334491 -.00022181  00000-0 -13803-2 0  9996,2 51874  53.2184 305.4821 0001922  43.8354  53.6729 15.08826249  1305,6917.922,95.438,541.117,538.4580000000002,0.0
51874.0,STARLINK-3574,PAYLOAD,2022-06-29 22:00:00,15.08829646,0.0001951,53.2181,303.9858,41.1082,67.9679,-0.00046298,-7.647e-05,0.0,0 STARLINK-3574,1 51874U 22022Y   22180.91667824 -.00007647  00000-0 -46298-3 0  9997,2 51874  53.2181 303.9858 0001951  41.1082  67.9679 15.08829646  1302,6917.9119999999975,95.438,541.127,538.427,0.0
51874.0,STARLINK-3574,PAYLOAD,2022-06-30 14:00:01,15.08836407,0.0001911,53.2184,300.9936,44.2835,87.948,-0.0012790999999999,-0.00020586,0.0,0 STARLINK-3574,1 51874U 22022Y   22181.58334491 -.00020586  00000-0 -12791-2 0  9999,2 51874  53.2184 300.9936 0001911  44.2835  87.9480 15.08836407  1300,6917.891,95.438,541.078,538.434,0.0
51874.0,STARLINK-3574,PAYLOAD,2022-06-30 22:00:00,15.088432,0.0001919,53.218,299.4971,42.2395,101.5724,-0.0010689,-0.00017261,0.0,0 STARLINK-3574,1 51874U 22022Y   22181.91667824 -.00017261  00000-0 -10689-2 0  9995,2 51874  53.2180 299.4971 0001919  42.2395 101.5724 15.08843200 19632,6917.871,95.437,541.063,538.408,0.0
51874.0,STARLINK-3574,PAYLOAD,2022-07-01 14:00:01,15.08843523,0.0001893,53.2179,296.5051,45.1311,121.8652,-0.0010159,-0.00016422,0.0,0 STARLINK-3574,1 51874U 22022Y   22182.58334491 -.00016422  00000-0 -10159-2 0  9990,2 51874  53.2179 296.5051 0001893  45.1311 121.8652 15.08843523  1306,6917.87,95.437,541.044,538.425,0.0
51874.0,STARLINK-3574,PAYLOAD,2022-07-01 22:00:00,15.08855591,0.0001883,53.2174,295.0084,43.8977,134.6889,-0.001499,-0.00024076,0.0,0 STARLINK-3574,1 51874U 22022Y   22182.91667824 -.00024076  00000-0 -14990-2 0  9997,2 51874  53.2174 295.0084 0001883  43.8977 134.6889 15.08855591 19786,6917.833000000001,95.437,541.0,538.395,0.0
